ALSAT 1B                
1 41785U 16059C   17346.42577929  .00000015  00000-0  12233-4 0  9993
2 41785  98.1435  45.9779 0030753 322.8719  37.0357 14.63256251 64648
